CCSDS_OMM_VERS = 2.0
CREATION_DATE  = 
ORIGINATOR     = 

OBJECT_NAME    = STARLINK-36674
OBJECT_ID      = 2026-022P
CENTER_NAME    = EARTH
REF_FRAME      = TEME
TIME_SYSTEM    = UTC
MEAN_ELEMENT_THEORY = SGP/SGP4

EPOCH          = 2026-02-25T01:38:55.058784
MEAN_MOTION    = 15.75266259
ECCENTRICITY   = .0001609
INCLINATION    = 97.2849
RA_OF_ASC_NODE = 89.4458
ARG_OF_PERICENTER = 17.5579
MEAN_ANOMALY   = 342.5741

EPHEMERIS_TYPE = 0
CLASSIFICATION_TYPE = U
NORAD_CAT_ID   = 67661
ELEMENT_SET_NO = 999
REV_AT_EPOCH   = 356
BSTAR          = .20029E-2
MEAN_MOTION_DOT = .310776E-2
MEAN_MOTION_DDOT = 0

CCSDS_OMM_VERS = 2.0
CREATION_DATE  = 
ORIGINATOR     = 

OBJECT_NAME    = STARLINK-36700
OBJECT_ID      = 2026-022Q
CENTER_NAME    = EARTH
REF_FRAME      = TEME
TIME_SYSTEM    = UTC
MEAN_ELEMENT_THEORY = SGP/SGP4

EPOCH          = 2026-02-25T01:35:51.756864
MEAN_MOTION    = 15.75274777
ECCENTRICITY   = .0001108
INCLINATION    = 97.2845
RA_OF_ASC_NODE = 89.4486
ARG_OF_PERICENTER = 88.6407
MEAN_ANOMALY   = 271.4985

EPHEMERIS_TYPE = 0
CLASSIFICATION_TYPE = U
NORAD_CAT_ID   = 67662
ELEMENT_SET_NO = 999
REV_AT_EPOCH   = 356
BSTAR          = .15019E-2
MEAN_MOTION_DOT = .230895E-2
MEAN_MOTION_DDOT = 0

CCSDS_OMM_VERS = 2.0
CREATION_DATE  = 
ORIGINATOR     = 

OBJECT_NAME    = STARLINK-36675
OBJECT_ID      = 2026-022R
CENTER_NAME    = EARTH
REF_FRAME      = TEME
TIME_SYSTEM    = UTC
MEAN_ELEMENT_THEORY = SGP/SGP4

EPOCH          = 2026-02-25T01:37:53.544576
MEAN_MOTION    = 15.75246824
ECCENTRICITY   = .0000914
INCLINATION    = 97.2845
RA_OF_ASC_NODE = 89.4467
ARG_OF_PERICENTER = 92.8510
MEAN_ANOMALY   = 267.2860

EPHEMERIS_TYPE = 0
CLASSIFICATION_TYPE = U
NORAD_CAT_ID   = 67663
ELEMENT_SET_NO = 999
REV_AT_EPOCH   = 356
BSTAR          = .14485E-2
MEAN_MOTION_DOT = .222188E-2
MEAN_MOTION_DDOT = 0

CCSDS_OMM_VERS = 2.0
CREATION_DATE  = 
ORIGINATOR     = 

OBJECT_NAME    = STARLINK-36404
OBJECT_ID      = 2026-022S
CENTER_NAME    = EARTH
REF_FRAME      = TEME
TIME_SYSTEM    = UTC
MEAN_ELEMENT_THEORY = SGP/SGP4

EPOCH          = 2026-02-25T01:33:19.320480
MEAN_MOTION    = 15.75267444
ECCENTRICITY   = .0001456
INCLINATION    = 97.2848
RA_OF_ASC_NODE = 89.4500
ARG_OF_PERICENTER = 120.8748
MEAN_ANOMALY   = 239.2660

EPHEMERIS_TYPE = 0
CLASSIFICATION_TYPE = U
NORAD_CAT_ID   = 67664
ELEMENT_SET_NO = 999
REV_AT_EPOCH   = 356
BSTAR          = .13767E-2
MEAN_MOTION_DOT = .211081E-2
MEAN_MOTION_DDOT = 0

CCSDS_OMM_VERS = 2.0
CREATION_DATE  = 
ORIGINATOR     = 

OBJECT_NAME    = STARLINK-36399
OBJECT_ID      = 2026-022T
CENTER_NAME    = EARTH
REF_FRAME      = TEME
TIME_SYSTEM    = UTC
MEAN_ELEMENT_THEORY = SGP/SGP4

EPOCH          = 2026-02-25T01:32:19.046112
MEAN_MOTION    = 15.75298011
ECCENTRICITY   = .0001941
INCLINATION    = 97.2851
RA_OF_ASC_NODE = 89.4518
ARG_OF_PERICENTER = 116.0558
MEAN_ANOMALY   = 244.0907

EPHEMERIS_TYPE = 0
CLASSIFICATION_TYPE = U
NORAD_CAT_ID   = 67665
ELEMENT_SET_NO = 999
REV_AT_EPOCH   = 356
BSTAR          = .18125E-2
MEAN_MOTION_DOT = .280594E-2
MEAN_MOTION_DDOT = 0

CCSDS_OMM_VERS = 2.0
CREATION_DATE  = 
ORIGINATOR     = 

OBJECT_NAME    = STARLINK-36365
OBJECT_ID      = 2026-022U
CENTER_NAME    = EARTH
REF_FRAME      = TEME
TIME_SYSTEM    = UTC
MEAN_ELEMENT_THEORY = SGP/SGP4

EPOCH          = 2026-02-25T01:30:16.587072
MEAN_MOTION    = 15.75246778
ECCENTRICITY   = .0001024
INCLINATION    = 97.2854
RA_OF_ASC_NODE = 89.4536
ARG_OF_PERICENTER = 37.8316
MEAN_ANOMALY   = 322.3021

EPHEMERIS_TYPE = 0
CLASSIFICATION_TYPE = U
NORAD_CAT_ID   = 67666
ELEMENT_SET_NO = 999
REV_AT_EPOCH   = 356
BSTAR          = .10043E-2
MEAN_MOTION_DOT = .152756E-2
MEAN_MOTION_DDOT = 0

CCSDS_OMM_VERS = 2.0
CREATION_DATE  = 
ORIGINATOR     = 

OBJECT_NAME    = STARLINK-36622
OBJECT_ID      = 2026-022V
CENTER_NAME    = EARTH
REF_FRAME      = TEME
TIME_SYSTEM    = UTC
MEAN_ELEMENT_THEORY = SGP/SGP4

EPOCH          = 2026-02-25T01:27:44.180928
MEAN_MOTION    = 15.75258832
ECCENTRICITY   = .000091
INCLINATION    = 97.2849
RA_OF_ASC_NODE = 89.4560
ARG_OF_PERICENTER = 38.4712
MEAN_ANOMALY   = 321.6617

EPHEMERIS_TYPE = 0
CLASSIFICATION_TYPE = U
NORAD_CAT_ID   = 67667
ELEMENT_SET_NO = 999
REV_AT_EPOCH   = 356
BSTAR          = .11994E-2
MEAN_MOTION_DOT = .183206E-2
MEAN_MOTION_DDOT = 0

CCSDS_OMM_VERS = 2.0
CREATION_DATE  = 
ORIGINATOR     = 

OBJECT_NAME    = STARLINK-36625
OBJECT_ID      = 2026-022W
CENTER_NAME    = EARTH
REF_FRAME      = TEME
TIME_SYSTEM    = UTC
MEAN_ELEMENT_THEORY = SGP/SGP4

EPOCH          = 2026-02-25T01:25:42.064896
MEAN_MOTION    = 15.75350603
ECCENTRICITY   = .0001971
INCLINATION    = 97.2847
RA_OF_ASC_NODE = 89.4570
ARG_OF_PERICENTER = 129.5306
MEAN_ANOMALY   = 230.6133

EPHEMERIS_TYPE = 0
CLASSIFICATION_TYPE = U
NORAD_CAT_ID   = 67668
ELEMENT_SET_NO = 999
REV_AT_EPOCH   = 356
BSTAR          = .21621E-2
MEAN_MOTION_DOT = .337792E-2
MEAN_MOTION_DDOT = 0

CCSDS_OMM_VERS = 2.0
CREATION_DATE  = 
ORIGINATOR     = 

OBJECT_NAME    = STARLINK-36639
OBJECT_ID      = 2026-022X
CENTER_NAME    = EARTH
REF_FRAME      = TEME
TIME_SYSTEM    = UTC
MEAN_ELEMENT_THEORY = SGP/SGP4

EPOCH          = 2026-02-25T01:23:09.523104
MEAN_MOTION    = 15.75306624
ECCENTRICITY   = .0002402
INCLINATION    = 97.2848
RA_OF_ASC_NODE = 89.4594
ARG_OF_PERICENTER = 136.7073
MEAN_ANOMALY   = 223.4381

EPHEMERIS_TYPE = 0
CLASSIFICATION_TYPE = U
NORAD_CAT_ID   = 67669
ELEMENT_SET_NO = 999
REV_AT_EPOCH   = 356
BSTAR          = .1986E-2
MEAN_MOTION_DOT = .30861E-2
MEAN_MOTION_DDOT = 0

CCSDS_OMM_VERS = 2.0
CREATION_DATE  = 
ORIGINATOR     = 

OBJECT_NAME    = STARLINK-36596
OBJECT_ID      = 2026-022Y
CENTER_NAME    = EARTH
REF_FRAME      = TEME
TIME_SYSTEM    = UTC
MEAN_ELEMENT_THEORY = SGP/SGP4

EPOCH          = 2026-02-25T01:20:37.195584
MEAN_MOTION    = 15.75274092
ECCENTRICITY   = .0000774
INCLINATION    = 97.2851
RA_OF_ASC_NODE = 89.4617
ARG_OF_PERICENTER = 90.3591
MEAN_ANOMALY   = 269.7763

EPHEMERIS_TYPE = 0
CLASSIFICATION_TYPE = U
NORAD_CAT_ID   = 67670
ELEMENT_SET_NO = 999
REV_AT_EPOCH   = 356
BSTAR          = .13846E-2
MEAN_MOTION_DOT = .21238E-2
MEAN_MOTION_DDOT = 0

CCSDS_OMM_VERS = 2.0
CREATION_DATE  = 
ORIGINATOR     = 

OBJECT_NAME    = STARLINK-36297
OBJECT_ID      = 2026-022Z
CENTER_NAME    = EARTH
REF_FRAME      = TEME
TIME_SYSTEM    = UTC
MEAN_ELEMENT_THEORY = SGP/SGP4

EPOCH          = 2026-02-25T01:17:34.018944
MEAN_MOTION    = 15.75267669
ECCENTRICITY   = .0001555
INCLINATION    = 97.2846
RA_OF_ASC_NODE = 89.4650
ARG_OF_PERICENTER = 120.0154
MEAN_ANOMALY   = 240.1265

EPHEMERIS_TYPE = 0
CLASSIFICATION_TYPE = U
NORAD_CAT_ID   = 67671
ELEMENT_SET_NO = 999
REV_AT_EPOCH   = 356
BSTAR          = .1349E-2
MEAN_MOTION_DOT = .206716E-2
MEAN_MOTION_DDOT = 0

CCSDS_OMM_VERS = 2.0
CREATION_DATE  = 
ORIGINATOR     = 

OBJECT_NAME    = STARLINK-36616
OBJECT_ID      = 2026-022AA
CENTER_NAME    = EARTH
REF_FRAME      = TEME
TIME_SYSTEM    = UTC
MEAN_ELEMENT_THEORY = SGP/SGP4

EPOCH          = 2026-02-25T01:19:36.101280
MEAN_MOTION    = 15.75227226
ECCENTRICITY   = .0000957
INCLINATION    = 97.2846
RA_OF_ASC_NODE = 89.4630
ARG_OF_PERICENTER = 8.1739
MEAN_ANOMALY   = 351.9542

EPHEMERIS_TYPE = 0
CLASSIFICATION_TYPE = U
NORAD_CAT_ID   = 67672
ELEMENT_SET_NO = 999
REV_AT_EPOCH   = 356
BSTAR          = .75007E-3
MEAN_MOTION_DOT = .113426E-2
MEAN_MOTION_DDOT = 0

